NORAD_CAT_ID,OBJECT_NAME,OBJECT_TYPE,EPOCH,MEAN_MOTION,ECCENTRICITY,INCLINATION,RA_OF_ASC_NODE,ARG_OF_PERICENTER,MEAN_ANOMALY,BSTAR,MEAN_MOTION_DOT,MEAN_MOTION_DDOT,TLE_LINE0,TLE_LINE1,TLE_LINE2,SEMIMAJOR_AXIS,PERIOD,APOGEE,PERIGEE,DECAYED
55396.0,STARLINK-5283,PAYLOAD,2024-06-17 20:11:36,14.983282,0.0003134,69.999,212.389,269.9453,90.1347,-2.1747e-05,-3.52e-06,0.0,0 STARLINK-5283,1 55396U 23014F   24169.84139988 -.00000352  00000-0 -21747-4 0  9997,2 55396  69.9990 212.3890 0003134 269.9453  90.1347 14.98328200 77719,6950.198,96.107,574.242,569.885,0.0
55396.0,STARLINK-5283,PAYLOAD,2024-06-18 12:12:57,14.98332554,0.0003199,69.9987,210.7057,269.7535,90.3258,2.6524e-05,2.23e-06,0.0,0 STARLINK-5283,1 55396U 23014F   24170.50899529  .00000223  00000-0  26524-4 0  9999,2 55396  69.9987 210.7057 0003199 269.7535  90.3258 14.98332554 76878,6950.185,96.107,574.273,569.827,0.0
55396.0,STARLINK-5283,PAYLOAD,2024-06-18 20:13:37,14.98331237,0.0003289,69.9984,209.8636,270.7796,89.2986,2.9394e-05,2.58e-06,0.0,0 STARLINK-5283,1 55396U 23014F   24170.84279543  .00000258  00000-0  29394-4 0  9990,2 55396  69.9984 209.8636 0003289 270.7796  89.2986 14.98331237 77860,6950.189,96.107,574.34,569.768,0.0
55396.0,STARLINK-5283,PAYLOAD,2024-06-19 12:14:58,14.98329713,0.0003332,69.9982,208.18,270.351,89.7267,8.2973e-05,8.97e-06,0.0,0 STARLINK-5283,1 55396U 23014F   24171.51039548  .00000897  00000-0  82973-4 0  9995,2 55396  69.9982 208.1800 0003332 270.3510  89.7267 14.98329713 77023,6950.194,96.107,574.375,569.743,0.0
55396.0,STARLINK-5283,PAYLOAD,2024-06-20 12:16:58,14.98334963,0.0003332,69.9983,205.6552,270.6767,89.401,2.2004e-05,1.7e-06,0.0,0 STARLINK-5283,1 55396U 23014F   24172.51179255  .00000170  00000-0  22004-4 0  9999,2 55396  69.9983 205.6552 0003332 270.6767  89.4010 14.98334963 78114,6950.178,96.107,574.358,569.727,0.0
55396.0,STARLINK-5283,PAYLOAD,2024-06-21 12:18:59,14.98331193,0.0003298,69.9987,203.1305,270.6006,89.4775,1.6451e-06,-7.3e-07,0.0,0 STARLINK-5283,1 55396U 23014F   24173.51319435 -.00000073  00000-0  16451-5 0  9999,2 55396  69.9987 203.1305 0003298 270.6006  89.4775 14.98331193 77326,6950.189,96.107,574.346,569.762,0.0
55396.0,STARLINK-5283,PAYLOAD,2024-06-22 12:21:01,14.98324545,0.0003324,69.9989,200.6053,271.9946,88.0833,-7.4201e-05,-9.78e-06,0.0,0 STARLINK-5283,1 55396U 23014F   24174.51460089 -.00000978  00000-0 -74201-4 0  9993,2 55396  69.9989 200.6053 0003324 271.9946  88.0833 14.98324545 77476,6950.21,96.107,574.385,569.765,0.0
55396.0,STARLINK-5283,PAYLOAD,2024-06-23 10:46:54,14.98323273,0.0003358,69.9991,198.2491,271.6624,88.4151,-3.0661e-05,-4.59e-06,0.0,0 STARLINK-5283,1 55396U 23014F   24175.44924412 -.00000459  00000-0 -30661-4 0  9997,2 55396  69.9991 198.2491 0003358 271.6624  88.4151 14.98323273 78558,6950.214,96.107,574.413,569.745,0.0
55396.0,STARLINK-5283,PAYLOAD,2024-06-24 04:24:23,14.98323255,0.0003375,69.9991,196.3975,270.9833,89.094,3.1239e-05,2.8e-06,0.0,0 STARLINK-5283,1 55396U 23014F   24176.18360502  .00000280  00000-0  31239-4 0  9995,2 55396  69.9991 196.3975 0003375 270.9833  89.0940 14.98323255 77728,6950.214,96.107,574.424,569.733,0.0
55396.0,STARLINK-5283,PAYLOAD,2024-06-24 10:48:55,14.98324117,0.0003354,69.9991,195.7243,270.6144,89.463,4.0908e-05,3.95e-06,0.0,0 STARLINK-5283,1 55396U 23014F   24176.45064538  .00000395  00000-0  40908-4 0  9995,2 55396  69.9991 195.7243 0003354 270.6144  89.4630 14.98324117 78705,6950.211,96.107,574.407,569.745,0.0
55396.0,STARLINK-5283,PAYLOAD,2024-06-25 04:26:24,14.98326474,0.0003409,69.999,193.873,269.4959,90.581,7.1172e-05,7.56e-06,0.0,0 STARLINK-5283,1 55396U 23014F   24177.18500531  .00000756  00000-0  71172-4 0  9992,2 55396  69.9990 193.8730 0003409 269.4959  90.5810 14.98326474 77873,6950.204,96.107,574.438,569.699,0.0
55396.0,STARLINK-5283,PAYLOAD,2024-06-25 10:50:56,14.98327719,0.0003382,69.9991,193.1999,268.807,91.2701,8.1033e-05,8.74e-06,0.0,0 STARLINK-5283,1 55396U 23014F   24177.45204478  .00000874  00000-0  81033-4 0  9991,2 55396  69.9991 193.1999 0003382 268.8070  91.2701 14.98327719 78850,6950.2,96.107,574.416,569.714,0.0
55396.0,STARLINK-5283,PAYLOAD,2024-06-26 04:28:25,14.9833312,0.0003447,69.999,191.3482,269.6096,90.4668,7.324e-05,7.81e-06,0.0,0 STARLINK-5283,1 55396U 23014F   24178.18640132  .00000781  00000-0  73240-4 0  9991,2 55396  69.9990 191.3482 0003447 269.6096  90.4668 14.98333120 78020,6950.183,96.107,574.444,569.653,0.0
55396.0,STARLINK-5283,PAYLOAD,2024-06-26 10:52:57,14.98335065,0.0003419,69.999,190.6752,269.2465,90.8302,9.1039e-05,9.94e-06,0.0,0 STARLINK-5283,1 55396U 23014F   24178.45343895  .00000994  00000-0  91039-4 0  9999,2 55396  69.9990 190.6752 0003419 269.2465  90.8302 14.98335065 79005,6950.177,96.107,574.418,569.666,0.0
55396.0,STARLINK-5283,PAYLOAD,2024-06-27 04:30:25,14.98339751,0.0003446,69.9989,188.8236,269.0058,91.0706,8.0938e-05,8.73e-06,0.0,0 STARLINK-5283,1 55396U 23014F   24179.18779308  .00000873  00000-0  80938-4 0  9994,2 55396  69.9989 188.8236 0003446 269.0058  91.0706 14.98339751 78179,6950.163,96.106,574.423,569.633,0.0
55396.0,STARLINK-5283,PAYLOAD,2024-06-27 17:19:29,14.98337446,0.0003371,69.9991,187.4766,269.8273,90.25,2.8217e-05,2.44e-06,0.0,0 STARLINK-5283,1 55396U 23014F   24179.72187283  .00000244  00000-0  28217-4 0  9993,2 55396  69.9991 187.4766 0003371 269.8273  90.2500 14.98337446 79194,6950.17,96.107,574.378,569.692,0.0
55396.0,STARLINK-5283,PAYLOAD,2024-06-28 04:32:26,14.98335216,0.0003338,69.9991,186.2985,269.7125,90.3652,-2.1026e-05,-3.44e-06,0.0,0 STARLINK-5283,1 55396U 23014F   24180.18919366 -.00000344  00000-0 -21026-4 0  9994,2 55396  69.9991 186.2985 0003338 269.7125  90.3652 14.98335216 78328,6950.177,96.107,574.362,569.722,0.0
55396.0,STARLINK-5283,PAYLOAD,2024-06-28 09:20:50,14.98336252,0.0003313,69.9992,185.7939,268.5092,91.5688,-4.2925e-06,-1.44e-06,0.0,0 STARLINK-5283,1 55396U 23014F   24180.38947161 -.00000144  00000-0 -42925-5 0  9990,2 55396  69.9992 185.7939 0003313 268.5092  91.5688 14.98336252 79295,6950.174,96.107,574.341,569.736,0.0
55396.0,STARLINK-5283,PAYLOAD,2024-06-29 04:34:27,14.98333261,0.0003255,69.9993,183.7744,267.2504,92.8282,-7.1508e-05,-9.46e-06,0.0,0 STARLINK-5283,1 55396U 23014F   24181.19059288 -.00000946  00000-0 -71508-4 0  9992,2 55396  69.9993 183.7744 0003255 267.2504  92.8282 14.98333261 78477,6950.183,96.107,574.31,569.786,0.0
55396.0,STARLINK-5283,PAYLOAD,2024-06-29 09:22:51,14.98333467,0.0003255,69.9992,183.2691,269.1526,90.926,-6.4125e-05,-8.58e-06,0.0,0 STARLINK-5283,1 55396U 23014F   24181.39087217 -.00000858  00000-0 -64125-4 0  9996,2 55396  69.9992 183.2691 0003255 269.1526  90.9260 14.98333467 79448,6950.182,96.107,574.309,569.785,0.0
55396.0,STARLINK-5283,PAYLOAD,2024-06-30 04:36:28,14.98330053,0.0003311,69.999,181.2494,269.9612,90.1167,1.7695e-06,-7.2e-07,0.0,0 STARLINK-5283,1 55396U 23014F   24182.19199178 -.00000072  00000-0  17695-5 0  9993,2 55396  69.9990 181.2494 0003311 269.9612  90.1167 14.98330053 78627,6950.193,96.107,574.359,569.757,0.0
55396.0,STARLINK-5283,PAYLOAD,2024-06-30 09:24:52,14.98330544,0.0003277,69.999,180.7441,268.5902,91.4881,1.0429e-05,3.1e-07,0.0,0 STARLINK-5283,1 55396U 23014F   24182.39227109  .00000031  00000-0  10429-4 0  9992,2 55396  69.9990 180.7441 0003277 268.5902  91.4881 14.98330544 79590,6950.191,96.107,574.334,569.779,0.0
55396.0,STARLINK-5283,PAYLOAD,2024-06-30 17:25:32,14.98329795,0.0003341,69.9989,179.9026,269.57,90.5076,3.7827e-05,3.58e-06,0.0,0 STARLINK-5283,1 55396U 23014F   24182.72607069  .00000358  00000-0  37827-4 0  9999,2 55396  69.9989 179.9026 0003341 269.5700  90.5076 14.98329795 79644,6950.194,96.107,574.381,569.736,0.0
55396.0,STARLINK-5283,PAYLOAD,2024-07-01 04:38:28,14.9832927,0.0003335,69.9988,178.724,268.7597,91.318,3.8957e-05,3.72e-06,0.0,0 STARLINK-5283,1 55396U 23014F   24183.19339116  .00000372  00000-0  38957-4 0  9997,2 55396  69.9988 178.7240 0003335 268.7597  91.3180 14.98329270 78772,6950.195,96.107,574.378,569.742,0.0
55396.0,STARLINK-5283,PAYLOAD,2024-07-01 09:26:53,14.98331113,0.0003319,69.9989,178.2191,268.7692,91.3087,5.7704e-05,5.96e-06,0.0,0 STARLINK-5283,1 55396U 23014F   24183.39366951  .00000596  00000-0  57704-4 0  9995,2 55396  69.9989 178.2191 0003319 268.7692  91.3087 14.98331113 79744,6950.189,96.107,574.361,569.748,0.0
55396.0,STARLINK-5283,PAYLOAD,2024-07-01 17:27:33,14.98331525,0.0003322,69.9989,177.3775,268.8191,91.2588,5.7052e-05,5.88e-06,0.0,0 STARLINK-5283,1 55396U 23014F   24183.72746886  .00000588  00000-0  57052-4 0  9998,2 55396  69.9989 177.3775 0003322 268.8191  91.2588 14.98331525 79798,6950.188,96.107,574.362,569.744,0.0
55396.0,STARLINK-5283,PAYLOAD,2024-07-02 04:40:29,14.98331921,0.0003323,69.9989,176.1993,268.6424,91.4355,3.5926e-05,3.36e-06,0.0,0 STARLINK-5283,1 55396U 23014F   24184.19478877  .00000336  00000-0  35926-4 0  9999,2 55396  69.9989 176.1993 0003323 268.6424  91.4355 14.98331921 78923,6950.187,96.107,574.361,569.742,0.0
55396.0,STARLINK-5283,PAYLOAD,2024-07-02 09:28:53,14.98334195,0.0003308,69.999,175.6944,268.6982,91.3798,5.8219e-05,6.02e-06,0.0,0 STARLINK-5283,1 55396U 23014F   24184.39506634  .00000602  00000-0  58219-4 0  9990,2 55396  69.9990 175.6944 0003308 268.6982  91.3798 14.98334195 79890,6950.18,96.107,574.344,569.746,0.0
55396.0,STARLINK-5283,PAYLOAD,2024-07-03 04:42:30,14.98328389,0.0003249,69.9993,173.6746,268.7048,91.3739,-1.417e-05,-2.62e-06,0.0,0 STARLINK-5283,1 55396U 23014F   24185.19619141 -.00000262  00000-0 -14170-4 0  9999,2 55396  69.9993 173.6746 0003249 268.7048  91.3739 14.98328389 79072,6950.198,96.107,574.321,569.805,0.0
55396.0,STARLINK-5283,PAYLOAD,2024-07-03 15:55:27,14.98330861,0.0003242,69.9994,172.4964,268.7994,91.2794,1.2397e-05,5.5e-07,0.0,0 STARLINK-5283,1 55396U 23014F   24185.66350914  .00000055  00000-0  12397-4 0  9998,2 55396  69.9994 172.4964 0003242 268.7994  91.2794 14.98330861 80086,6950.19,96.107,574.308,569.802,0.0
